<?xml version="1.0" encoding="UTF-8"?>
<ndm xmlns:xsi="http://www.w3.org/2001/XMLSchema-instance" xsi:noNamespaceSchemaLocation="https://sanaregistry.org/r/ndmxml_unqualified/ndmxml-2.0.0-master-2.0.xsd">
<omm id="CCSDS_OMM_VERS" version="2.0">
<header><CREATION_DATE/><ORIGINATOR/></header><body><segment><metadata><OBJECT_NAME>KUIPER-00025</OBJECT_NAME><OBJECT_ID>2025-088R</OBJECT_ID><CENTER_NAME>EARTH</CENTER_NAME><REF_FRAME>TEME</REF_FRAME><TIME_SYSTEM>UTC</TIME_SYSTEM><MEAN_ELEMENT_THEORY>SGP4</MEAN_ELEMENT_THEORY></metadata><data><meanElements><EPOCH>2025-05-08T04:00:00.999936</EPOCH><MEAN_MOTION>15.35384363</MEAN_MOTION><ECCENTRICITY>.0006028</ECCENTRICITY><INCLINATION>51.8682</INCLINATION><RA_OF_ASC_NODE>53.4859</RA_OF_ASC_NODE><ARG_OF_PERICENTER>132.1536</ARG_OF_PERICENTER><MEAN_ANOMALY>47.2915</MEAN_ANOMALY></meanElements><tleParameters><EPHEMERIS_TYPE>0</EPHEMERIS_TYPE><CLASSIFICATION_TYPE>U</CLASSIFICATION_TYPE><NORAD_CAT_ID>63739</NORAD_CAT_ID><ELEMENT_SET_NO>999</ELEMENT_SET_NO><REV_AT_EPOCH>199</REV_AT_EPOCH><BSTAR>.10477E-2</BSTAR><MEAN_MOTION_DOT>.36373E-3</MEAN_MOTION_DOT><MEAN_MOTION_DDOT>0</MEAN_MOTION_DDOT></tleParameters></data></segment></body></omm>
<omm id="CCSDS_OMM_VERS" version="2.0">
<header><CREATION_DATE/><ORIGINATOR/></header><body><segment><metadata><OBJECT_NAME>KUIPER-00027</OBJECT_NAME><OBJECT_ID>2025-088S</OBJECT_ID><CENTER_NAME>EARTH</CENTER_NAME><REF_FRAME>TEME</REF_FRAME><TIME_SYSTEM>UTC</TIME_SYSTEM><MEAN_ELEMENT_THEORY>SGP4</MEAN_ELEMENT_THEORY></metadata><data><meanElements><EPOCH>2025-05-07T22:00:01.999584</EPOCH><MEAN_MOTION>15.36189321</MEAN_MOTION><ECCENTRICITY>.0003342</ECCENTRICITY><INCLINATION>51.8732</INCLINATION><RA_OF_ASC_NODE>54.6300</RA_OF_ASC_NODE><ARG_OF_PERICENTER>127.9955</ARG_OF_PERICENTER><MEAN_ANOMALY>134.2677</MEAN_ANOMALY></meanElements><tleParameters><EPHEMERIS_TYPE>0</EPHEMERIS_TYPE><CLASSIFICATION_TYPE>U</CLASSIFICATION_TYPE><NORAD_CAT_ID>63740</NORAD_CAT_ID><ELEMENT_SET_NO>999</ELEMENT_SET_NO><REV_AT_EPOCH>168</REV_AT_EPOCH><BSTAR>-.42503E-3</BSTAR><MEAN_MOTION_DOT>-.15579E-3</MEAN_MOTION_DOT><MEAN_MOTION_DDOT>0</MEAN_MOTION_DDOT></tleParameters></data></segment></body></omm>
<omm id="CCSDS_OMM_VERS" version="2.0">
<header><CREATION_DATE/><ORIGINATOR/></header><body><segment><metadata><OBJECT_NAME>KUIPER-00028</OBJECT_NAME><OBJECT_ID>2025-088T</OBJECT_ID><CENTER_NAME>EARTH</CENTER_NAME><REF_FRAME>TEME</REF_FRAME><TIME_SYSTEM>UTC</TIME_SYSTEM><MEAN_ELEMENT_THEORY>SGP4</MEAN_ELEMENT_THEORY></metadata><data><meanElements><EPOCH>2025-05-07T22:00:01.999584</EPOCH><MEAN_MOTION>15.36383626</MEAN_MOTION><ECCENTRICITY>.0002595</ECCENTRICITY><INCLINATION>51.8725</INCLINATION><RA_OF_ASC_NODE>54.6209</RA_OF_ASC_NODE><ARG_OF_PERICENTER>125.0068</ARG_OF_PERICENTER><MEAN_ANOMALY>143.3010</MEAN_ANOMALY></meanElements><tleParameters><EPHEMERIS_TYPE>0</EPHEMERIS_TYPE><CLASSIFICATION_TYPE>U</CLASSIFICATION_TYPE><NORAD_CAT_ID>63741</NORAD_CAT_ID><ELEMENT_SET_NO>999</ELEMENT_SET_NO><REV_AT_EPOCH>209</REV_AT_EPOCH><BSTAR>-.4276E-3</BSTAR><MEAN_MOTION_DOT>-.15765E-3</MEAN_MOTION_DOT><MEAN_MOTION_DDOT>0</MEAN_MOTION_DDOT></tleParameters></data></segment></body></omm>
<omm id="CCSDS_OMM_VERS" version="2.0">
<header><CREATION_DATE/><ORIGINATOR/></header><body><segment><metadata><OBJECT_NAME>KUIPER-00029</OBJECT_NAME><OBJECT_ID>2025-088U</OBJECT_ID><CENTER_NAME>EARTH</CENTER_NAME><REF_FRAME>TEME</REF_FRAME><TIME_SYSTEM>UTC</TIME_SYSTEM><MEAN_ELEMENT_THEORY>SGP4</MEAN_ELEMENT_THEORY></metadata><data><meanElements><EPOCH>2025-05-08T04:00:00.999936</EPOCH><MEAN_MOTION>15.35518503</MEAN_MOTION><ECCENTRICITY>.0005583</ECCENTRICITY><INCLINATION>51.8716</INCLINATION><RA_OF_ASC_NODE>53.4736</RA_OF_ASC_NODE><ARG_OF_PERICENTER>129.5627</ARG_OF_PERICENTER><MEAN_ANOMALY>54.4023</MEAN_ANOMALY></meanElements><tleParameters><EPHEMERIS_TYPE>0</EPHEMERIS_TYPE><CLASSIFICATION_TYPE>U</CLASSIFICATION_TYPE><NORAD_CAT_ID>63742</NORAD_CAT_ID><ELEMENT_SET_NO>999</ELEMENT_SET_NO><REV_AT_EPOCH>165</REV_AT_EPOCH><BSTAR>.1049E-2</BSTAR><MEAN_MOTION_DOT>.36575E-3</MEAN_MOTION_DOT><MEAN_MOTION_DDOT>0</MEAN_MOTION_DDOT></tleParameters></data></segment></body></omm>
<omm id="CCSDS_OMM_VERS" version="2.0">
<header><CREATION_DATE/><ORIGINATOR/></header><body><segment><metadata><OBJECT_NAME>KUIPER-00030</OBJECT_NAME><OBJECT_ID>2025-088V</OBJECT_ID><CENTER_NAME>EARTH</CENTER_NAME><REF_FRAME>TEME</REF_FRAME><TIME_SYSTEM>UTC</TIME_SYSTEM><MEAN_ELEMENT_THEORY>SGP4</MEAN_ELEMENT_THEORY></metadata><data><meanElements><EPOCH>2025-05-08T04:00:00.999936</EPOCH><MEAN_MOTION>15.34823986</MEAN_MOTION><ECCENTRICITY>.000863</ECCENTRICITY><INCLINATION>51.8680</INCLINATION><RA_OF_ASC_NODE>53.5245</RA_OF_ASC_NODE><ARG_OF_PERICENTER>140.2342</ARG_OF_PERICENTER><MEAN_ANOMALY>20.3118</MEAN_ANOMALY></meanElements><tleParameters><EPHEMERIS_TYPE>0</EPHEMERIS_TYPE><CLASSIFICATION_TYPE>U</CLASSIFICATION_TYPE><NORAD_CAT_ID>63743</NORAD_CAT_ID><ELEMENT_SET_NO>999</ELEMENT_SET_NO><REV_AT_EPOCH>194</REV_AT_EPOCH><BSTAR>.1035E-2</BSTAR><MEAN_MOTION_DOT>.35301E-3</MEAN_MOTION_DOT><MEAN_MOTION_DDOT>0</MEAN_MOTION_DDOT></tleParameters></data></segment></body></omm>
<omm id="CCSDS_OMM_VERS" version="2.0">
<header><CREATION_DATE/><ORIGINATOR/></header><body><segment><metadata><OBJECT_NAME>KUIPER-00031</OBJECT_NAME><OBJECT_ID>2025-088W</OBJECT_ID><CENTER_NAME>EARTH</CENTER_NAME><REF_FRAME>TEME</REF_FRAME><TIME_SYSTEM>UTC</TIME_SYSTEM><MEAN_ELEMENT_THEORY>SGP4</MEAN_ELEMENT_THEORY></metadata><data><meanElements><EPOCH>2025-05-07T22:00:01.999584</EPOCH><MEAN_MOTION>15.35949162</MEAN_MOTION><ECCENTRICITY>.0004504</ECCENTRICITY><INCLINATION>51.8719</INCLINATION><RA_OF_ASC_NODE>54.6491</RA_OF_ASC_NODE><ARG_OF_PERICENTER>123.3079</ARG_OF_PERICENTER><MEAN_ANOMALY>131.4667</MEAN_ANOMALY></meanElements><tleParameters><EPHEMERIS_TYPE>0</EPHEMERIS_TYPE><CLASSIFICATION_TYPE>U</CLASSIFICATION_TYPE><NORAD_CAT_ID>63744</NORAD_CAT_ID><ELEMENT_SET_NO>999</ELEMENT_SET_NO><REV_AT_EPOCH>158</REV_AT_EPOCH><BSTAR>-.42361E-3</BSTAR><MEAN_MOTION_DOT>-.15414E-3</MEAN_MOTION_DOT><MEAN_MOTION_DDOT>0</MEAN_MOTION_DDOT></tleParameters></data></segment></body></omm>
<omm id="CCSDS_OMM_VERS" version="2.0">
<header><CREATION_DATE/><ORIGINATOR/></header><body><segment><metadata><OBJECT_NAME>KUIPER-00032</OBJECT_NAME><OBJECT_ID>2025-088X</OBJECT_ID><CENTER_NAME>EARTH</CENTER_NAME><REF_FRAME>TEME</REF_FRAME><TIME_SYSTEM>UTC</TIME_SYSTEM><MEAN_ELEMENT_THEORY>SGP4</MEAN_ELEMENT_THEORY></metadata><data><meanElements><EPOCH>2025-05-08T04:00:00.999936</EPOCH><MEAN_MOTION>15.35629478</MEAN_MOTION><ECCENTRICITY>.0005638</ECCENTRICITY><INCLINATION>51.8708</INCLINATION><RA_OF_ASC_NODE>53.4651</RA_OF_ASC_NODE><ARG_OF_PERICENTER>121.6420</ARG_OF_PERICENTER><MEAN_ANOMALY>67.0160</MEAN_ANOMALY></meanElements><tleParameters><EPHEMERIS_TYPE>0</EPHEMERIS_TYPE><CLASSIFICATION_TYPE>U</CLASSIFICATION_TYPE><NORAD_CAT_ID>63745</NORAD_CAT_ID><ELEMENT_SET_NO>999</ELEMENT_SET_NO><REV_AT_EPOCH>266</REV_AT_EPOCH><BSTAR>.10505E-2</BSTAR><MEAN_MOTION_DOT>.3676E-3</MEAN_MOTION_DOT><MEAN_MOTION_DDOT>0</MEAN_MOTION_DDOT></tleParameters></data></segment></body></omm>
<omm id="CCSDS_OMM_VERS" version="2.0">
<header><CREATION_DATE/><ORIGINATOR/></header><body><segment><metadata><OBJECT_NAME>KUIPER-00033</OBJECT_NAME><OBJECT_ID>2025-088Y</OBJECT_ID><CENTER_NAME>EARTH</CENTER_NAME><REF_FRAME>TEME</REF_FRAME><TIME_SYSTEM>UTC</TIME_SYSTEM><MEAN_ELEMENT_THEORY>SGP4</MEAN_ELEMENT_THEORY></metadata><data><meanElements><EPOCH>2025-05-07T22:00:01.999584</EPOCH><MEAN_MOTION>15.36677829</MEAN_MOTION><ECCENTRICITY>.0001278</ECCENTRICITY><INCLINATION>51.8733</INCLINATION><RA_OF_ASC_NODE>54.5987</RA_OF_ASC_NODE><ARG_OF_PERICENTER>119.0957</ARG_OF_PERICENTER><MEAN_ANOMALY>158.8067</MEAN_ANOMALY></meanElements><tleParameters><EPHEMERIS_TYPE>0</EPHEMERIS_TYPE><CLASSIFICATION_TYPE>U</CLASSIFICATION_TYPE><NORAD_CAT_ID>63746</NORAD_CAT_ID><ELEMENT_SET_NO>999</ELEMENT_SET_NO><REV_AT_EPOCH>210</REV_AT_EPOCH><BSTAR>-.43354E-3</BSTAR><MEAN_MOTION_DOT>-.16125E-3</MEAN_MOTION_DOT><MEAN_MOTION_DDOT>0</MEAN_MOTION_DDOT></tleParameters></data></segment></body></omm>

</ndm>